0 COSMOS 397 DEB
1 05042U 71015P   13282.81275777  .00007284  00000-0  22105-2 0   663
2 05042 065.6202 089.2691 0710372 204.7614 277.0413 13.51174800 19603
0 COSMOS 397 DEB
1 05042U 71015P   13287.84732096  .00011780  00000-0  35577-2 0   688
2 05042 065.6199 077.1043 0709758 202.5963 286.9987 13.51250606 20284
0 COSMOS 397 DEB
1 05042U 71015P   13289.83532531  .00010986  00000-0  33217-2 0   698
2 05042 065.6207 072.3008 0709477 201.7343 237.7910 13.51286120 20553
0 COSMOS 397 DEB
1 05042U 71015P   13290.78049604  .00009434  00000-0  28236-2 0   712
2 05042 065.6253 070.0129 0709464 201.2607 155.8001 13.51302280 20688
0 COSMOS 397 DEB
1 05042U 71015P   13291.02553655  .00011367  00000-0  34260-2 0   729
2 05042 065.6203 069.4270 0709877 201.2602 267.7673 13.51319024 20711
0 COSMOS 397 DEB
1 05042U 71015P   13293.37793382  .00011821  00000-0  35718-2 0   737
2 05042 065.6215 063.7416 0709012 200.2300 191.7904 13.51369594 21034
0 COSMOS 397 DEB
1 05042U 71015P   13294.81053882  .00012516  00000-0  37831-2 0   742
2 05042 065.6223 060.2798 0708713 199.5955 321.3791 13.51390188 21220
